start=new Date('2022-01-14T00:00:00.000Z').valueOf();
sats=[{"REV_AT_EPOCH":"4395","LAUNCH_DATE":"2021-04-07","ARG_OF_PERICENTER":"95.7884","SEMIMAJOR_AXIS":"6925.348","MEAN_MOTION":"15.06400024","COUNTRY_CODE":"US","OBJECT_ID":"2021-027AE","MEAN_ANOMALY":"264.3279","RCS_SIZE":"LARGE","TIME_SYSTEM":"UTC","OBJECT_TYPE":"PAYLOAD","RA_OF_ASC_NODE":"136.5198","MEAN_ELEMENT_THEORY":"SGP4","EPOCH":"2022-01-13T20:14:40.043328","TLE_LINE1":"1 48120U 21027AE  22013.84351902  .00001720  00000-0  13436-3 0  9997","CENTER_NAME":"EARTH","NORAD_CAT_ID":"48120","PERIOD":"95.592","MEAN_MOTION_DDOT":"0.0000000000000","EPHEMERIS_TYPE":"0","ELEMENT_SET_NO":"999","MEAN_MOTION_DOT":"0.00001720","CLASSIFICATION_TYPE":"U","SITE":"AFETR","DECAY_DATE":null,"OBJECT_NAME":"STARLINK-2460","TLE_LINE2":"2 48120  53.0548 136.5198 0001526  95.7884 264.3279 15.06400024 43956","PERIAPSIS":"546.157","APOAPSIS":"548.270","GP_ID":"193810583","FILE":"3272312","ECCENTRICITY":"0.00015260","BSTAR":"0.00013436000000","INCLINATION":"53.0548","REF_FRAME":"TEME"},{"DECAY_DATE":null,"SITE":"AFETR","CLASSIFICATION_TYPE":"U","MEAN_MOTION_DOT":"0.00000274","ELEMENT_SET_NO":"999","TLE_LINE2":"2 48121  53.0559 126.9455 0001382  98.4283 261.6862 15.06401227 44068","PERIAPSIS":"546.253","OBJECT_NAME":"STARLINK-2462","PERIOD":"95.592","MEAN_MOTION_DDOT":"0.0000000000000","EPHEMERIS_TYPE":"0","INCLINATION":"53.0559","BSTAR":"0.00003731700000","REF_FRAME":"TEME","GP_ID":"193810833","APOAPSIS":"548.167","FILE":"3272312","ECCENTRICITY":"0.00013820","LAUNCH_DATE":"2021-04-07","MEAN_MOTION":"15.06401227","COUNTRY_CODE":"US","ARG_OF_PERICENTER":"98.4283","SEMIMAJOR_AXIS":"6925.345","REV_AT_EPOCH":"4406","OBJECT_TYPE":"PAYLOAD","TIME_SYSTEM":"UTC","RCS_SIZE":"LARGE","CENTER_NAME":"EARTH","TLE_LINE1":"1 48121U 21027AF  22013.74860230  .00000274  00000-0  37317-4 0  9994","NORAD_CAT_ID":"48121","EPOCH":"2022-01-13T17:57:59.238720","MEAN_ELEMENT_THEORY":"SGP4","RA_OF_ASC_NODE":"126.9455","OBJECT_ID":"2021-027AF","MEAN_ANOMALY":"261.6862"},{"ELEMENT_SET_NO":"999","MEAN_MOTION_DOT":"0.00001556","CLASSIFICATION_TYPE":"U","SITE":"AFETR","DECAY_DATE":null,"OBJECT_NAME":"STARLINK-2463","PERIAPSIS":"546.257","TLE_LINE2":"2 48122  53.0556 121.6362 0001366  80.7980 279.3164 15.06403308 44158","PERIOD":"95.592","MEAN_MOTION_DDOT":"0.0000000000000","EPHEMERIS_TYPE":"0","BSTAR":"0.00012331000000","INCLINATION":"53.0556","REF_FRAME":"TEME","GP_ID":"193812085","APOAPSIS":"548.149","ECCENTRICITY":"0.00013660","FILE":"3272312","LAUNCH_DATE":"2021-04-07","SEMIMAJOR_AXIS":"6925.338","ARG_OF_PERICENTER":"80.7980","COUNTRY_CODE":"US","MEAN_MOTION":"15.06403308","REV_AT_EPOCH":"4415","RCS_SIZE":"LARGE","OBJECT_TYPE":"PAYLOAD","TIME_SYSTEM":"UTC","RA_OF_ASC_NODE":"121.6362","MEAN_ELEMENT_THEORY":"SGP4","EPOCH":"2022-01-13T19:35:29.289408","TLE_LINE1":"1 48122U 21027AG  22013.81631122  .00001556  00000-0  12331-3 0  9991","NORAD_CAT_ID":"48122","CENTER_NAME":"EARTH","OBJECT_ID":"2021-027AG","MEAN_ANOMALY":"279.3164"},{"ECCENTRICITY":"0.00013990","FILE":"3272312","APOAPSIS":"548.195","GP_ID":"193812336","REF_FRAME":"TEME","BSTAR":"0.00015497000000","INCLINATION":"53.0552","EPHEMERIS_TYPE":"0","PERIOD":"95.592","MEAN_MOTION_DDOT":"0.0000000000000","OBJECT_NAME":"STARLINK-2464","PERIAPSIS":"546.257","TLE_LINE2":"2 48123  53.0552 116.8965 0001399 105.5466 254.5677 15.06396010 44213","ELEMENT_SET_NO":"999","MEAN_MOTION_DOT":"0.00002027","SITE":"AFETR","CLASSIFICATION_TYPE":"U","DECAY_DATE":null,"MEAN_ANOMALY":"254.5677","OBJECT_ID":"2021-027AH","RA_OF_ASC_NODE":"116.8965","MEAN_ELEMENT_THEORY":"SGP4","EPOCH":"2022-01-13T18:09:55.893888","TLE_LINE1":"1 48123U 21027AH  22013.75689692  .00002027  00000-0  15497-3 0  9990","CENTER_NAME":"EARTH","NORAD_CAT_ID":"48123","RCS_SIZE":"LARGE","TIME_SYSTEM":"UTC","OBJECT_TYPE":"PAYLOAD","REV_AT_EPOCH":"4421","SEMIMAJOR_AXIS":"6925.361","ARG_OF_PERICENTER":"105.5466","COUNTRY_CODE":"US","MEAN_MOTION":"15.06396010","LAUNCH_DATE":"2021-04-07"},{"MEAN_MOTION_DDOT":"0.0000000000000","PERIOD":"95.593","EPHEMERIS_TYPE":"0","CLASSIFICATION_TYPE":"U","SITE":"AFETR","DECAY_DATE":null,"ELEMENT_SET_NO":"999","MEAN_MOTION_DOT":"-0.00000168","PERIAPSIS":"546.286","TLE_LINE2":"2 48124  53.0560 126.6236 0001398  90.7560 269.3589 15.06386588 44071","OBJECT_NAME":"STARLINK-2465","GP_ID":"193811084","APOAPSIS":"548.223","FILE":"3272312","ECCENTRICITY":"0.00013980","INCLINATION":"53.0560","BSTAR":"0.00000759290000","REF_FRAME":"TEME","REV_AT_EPOCH":"4407","LAUNCH_DATE":"2021-04-07","ARG_OF_PERICENTER":"90.7560","SEMIMAJOR_AXIS":"6925.390","COUNTRY_CODE":"US","MEAN_MOTION":"15.06386588","OBJECT_ID":"2021-027AJ","MEAN_ANOMALY":"269.3589","OBJECT_TYPE":"PAYLOAD","TIME_SYSTEM":"UTC","RCS_SIZE":"LARGE","EPOCH":"2022-01-13T19:44:09.419136","MEAN_ELEMENT_THEORY":"SGP4","TLE_LINE1":"1 48124U 21027AJ  22013.82233124 -.00000168  00000-0  75929-5 0  9997","CENTER_NAME":"EARTH","NORAD_CAT_ID":"48124","RA_OF_ASC_NODE":"126.6236"},{"APOAPSIS":"548.498","GP_ID":"193811334","FILE":"3272312","ECCENTRICITY":"0.00016520","INCLINATION":"53.0554","BSTAR":"-0.00025687000000","REF_FRAME":"TEME","MEAN_MOTION_DDOT":"0.0000000000000","PERIOD":"95.595","EPHEMERIS_TYPE":"0","CLASSIFICATION_TYPE":"U","SITE":"AFETR","DECAY_DATE":null,"ELEMENT_SET_NO":"999","MEAN_MOTION_DOT":"-0.00004101","TLE_LINE2":"2 48125  53.0554 137.5457 0001652 111.1913 248.9253 15.06354232 43918","PERIAPSIS":"546.210","OBJECT_NAME":"STARLINK-2466","OBJECT_ID":"2021-027AK","MEAN_ANOMALY":"248.9253","TIME_SYSTEM":"UTC","OBJECT_TYPE":"PAYLOAD","RCS_SIZE":"LARGE","EPOCH":"2022-01-13T14:44:16.778112","MEAN_ELEMENT_THEORY":"SGP4","CENTER_NAME":"EARTH","TLE_LINE1":"1 48125U 21027AK  22013.61408308 -.00004101  00000-0 -25687-3 0  9999","NORAD_CAT_ID":"48125","RA_OF_ASC_NODE":"137.5457","REV_AT_EPOCH":"4391","LAUNCH_DATE":"2021-04-07","SEMIMAJOR_AXIS":"6925.489","ARG_OF_PERICENTER":"111.1913","COUNTRY_CODE":"US","MEAN_MOTION":"15.06354232"},{"RCS_SIZE":"LARGE","TIME_SYSTEM":"UTC","OBJECT_TYPE":"PAYLOAD","RA_OF_ASC_NODE":"116.7460","EPOCH":"2022-01-13T18:57:41.869152","MEAN_ELEMENT_THEORY":"SGP4","NORAD_CAT_ID":"48126","TLE_LINE1":"1 48126U 21027AL  22013.79006793  .00000461  00000-0  49822-4 0  9992","CENTER_NAME":"EARTH","OBJECT_ID":"2021-027AL","MEAN_ANOMALY":"265.3441","LAUNCH_DATE":"2021-04-07","SEMIMAJOR_AXIS":"6925.340","ARG_OF_PERICENTER":"94.7699","MEAN_MOTION":"15.06402780","COUNTRY_CODE":"US","REV_AT_EPOCH":"4422","BSTAR":"0.00004982200000","INCLINATION":"53.0546","REF_FRAME":"TEME","APOAPSIS":"548.121","GP_ID":"193811585","FILE":"3272312","ECCENTRICITY":"0.00013230","ELEMENT_SET_NO":"999","MEAN_MOTION_DOT":"0.00000461","CLASSIFICATION_TYPE":"U","SITE":"AFETR","DECAY_DATE":null,"OBJECT_NAME":"STARLINK-2467","TLE_LINE2":"2 48126  53.0546 116.7460 0001323  94.7699 265.3441 15.06402780 44224","PERIAPSIS":"546.289","MEAN_MOTION_DDOT":"0.0000000000000","PERIOD":"95.592","EPHEMERIS_TYPE":"0"},{"EPHEMERIS_TYPE":"0","MEAN_MOTION_DDOT":"0.0000000000000","PERIOD":"95.592","TLE_LINE2":"2 48127  53.0562 137.3985 0001586  89.1984 270.9187 15.06394468 43917","PERIAPSIS":"546.132","OBJECT_NAME":"STARLINK-2468","SITE":"AFETR","CLASSIFICATION_TYPE":"U","DECAY_DATE":null,"ELEMENT_SET_NO":"999","MEAN_MOTION_DOT":"0.00001053","FILE":"3272312","ECCENTRICITY":"0.00015860","APOAPSIS":"548.329","GP_ID":"193811836","REF_FRAME":"TEME","INCLINATION":"53.0562","BSTAR":"0.00008961800000","REV_AT_EPOCH":"4391","ARG_OF_PERICENTER":"89.1984","SEMIMAJOR_AXIS":"6925.366","MEAN_MOTION":"15.06394468","COUNTRY_CODE":"US","LAUNCH_DATE":"2021-04-07","MEAN_ANOMALY":"270.9187","OBJECT_ID":"2021-027AM","EPOCH":"2022-01-13T15:33:21.745440","MEAN_ELEMENT_THEORY":"SGP4","CENTER_NAME":"EARTH","TLE_LINE1":"1 48127U 21027AM  22013.64816835  .00001053  00000-0  89618-4 0  9998","NORAD_CAT_ID":"48127","RA_OF_ASC_NODE":"137.3985","OBJECT_TYPE":"PAYLOAD","TIME_SYSTEM":"UTC","RCS_SIZE":"LARGE"},{"REV_AT_EPOCH":"4485","LAUNCH_DATE":"2021-04-07","COUNTRY_CODE":"US","MEAN_MOTION":"15.06395594","ARG_OF_PERICENTER":"116.7481","SEMIMAJOR_AXIS":"6925.362","OBJECT_ID":"2021-027AN","MEAN_ANOMALY":"243.3650","TIME_SYSTEM":"UTC","OBJECT_TYPE":"PAYLOAD","RCS_SIZE":"LARGE","CENTER_NAME":"EARTH","TLE_LINE1":"1 48128U 21027AN  22013.42145246  .00001841  00000-0  14245-3 0  9994","NORAD_CAT_ID":"48128","MEAN_ELEMENT_THEORY":"SGP4","EPOCH":"2022-01-13T10:06:53.492544","RA_OF_ASC_NODE":"68.4013","MEAN_MOTION_DDOT":"0.0000000000000","PERIOD":"95.592","EPHEMERIS_TYPE":"0","DECAY_DATE":null,"SITE":"AFETR","CLASSIFICATION_TYPE":"U","MEAN_MOTION_DOT":"0.00001841","ELEMENT_SET_NO":"999","TLE_LINE2":"2 48128  53.0576  68.4013 0001389 116.7481 243.3650 15.06395594 44853","PERIAPSIS":"546.265","OBJECT_NAME":"STARLINK-2469","GP_ID":"193779783","APOAPSIS":"548.189","FILE":"3271980","ECCENTRICITY":"0.00013890","INCLINATION":"53.0576","BSTAR":"0.00014245000000","REF_FRAME":"TEME"},{"ECCENTRICITY":"0.00015070","FILE":"3272312","GP_ID":"193810834","APOAPSIS":"548.295","REF_FRAME":"TEME","INCLINATION":"53.0562","BSTAR":"0.00000735240000","EPHEMERIS_TYPE":"0","PERIOD":"95.593","MEAN_MOTION_DDOT":"0.0000000000000","PERIAPSIS":"546.208","TLE_LINE2":"2 48129  53.0562 136.8343 0001507  94.1199 265.9962 15.06387699 43933","OBJECT_NAME":"STARLINK-2471","DECAY_DATE":null,"SITE":"AFETR","CLASSIFICATION_TYPE":"U","MEAN_MOTION_DOT":"-0.00000172","ELEMENT_SET_NO":"999","MEAN_ANOMALY":"265.9962","OBJECT_ID":"2021-027AP","TLE_LINE1":"1 48129U 21027AP  22013.77349278 -.00000172  00000-0  73524-5 0  9998","NORAD_CAT_ID":"48129","CENTER_NAME":"EARTH","MEAN_ELEMENT_THEORY":"SGP4","EPOCH":"2022-01-13T18:33:49.776192","RA_OF_ASC_NODE":"136.8343","OBJECT_TYPE":"PAYLOAD","TIME_SYSTEM":"UTC","RCS_SIZE":"LARGE","REV_AT_EPOCH":"4393","COUNTRY_CODE":"US","MEAN_MOTION":"15.06387699","SEMIMAJOR_AXIS":"6925.386","ARG_OF_PERICENTER":"94.1199","LAUNCH_DATE":"2021-04-07"}];
